[{"OBJECT_NAME":"SITRO-AIS 46","OBJECT_ID":"2024-199AR","EPOCH":"2026-03-09T22:46:46.525440","MEAN_MOTION":15.51304628,"ECCENTRICITY":0.00068268,"INCLINATION":97.307,"RA_OF_ASC_NODE":303.3786,"ARG_OF_PERICENTER":303.3302,"MEAN_ANOMALY":56.7296,"EPHEMERIS_TYPE":0,"CLASSIFICATION_TYPE":"U","NORAD_CAT_ID":61774,"ELEMENT_SET_NO":999,"REV_AT_EPOCH":11904,"BSTAR":0.00081688742,"MEAN_MOTION_DOT":0.00048106,"MEAN_MOTION_DDOT":0},{"OBJECT_NAME":"STARLINK-36746","OBJECT_ID":"2026-026N","EPOCH":"2026-03-09T17:17:20.739552","MEAN_MOTION":15.4925536,"ECCENTRICITY":9.162e-5,"INCLINATION":97.2846,"RA_OF_ASC_NODE":123.0634,"ARG_OF_PERICENTER":71.5867,"MEAN_ANOMALY":288.5484,"EPHEMERIS_TYPE":0,"CLASSIFICATION_TYPE":"U","NORAD_CAT_ID":67733,"ELEMENT_SET_NO":999,"REV_AT_EPOCH":411,"BSTAR":0.0019410593,"MEAN_MOTION_DOT":0.00107174,"MEAN_MOTION_DDOT":0}]
